{
  "type": "FeatureCollection",
  "features": [
    {
      "type": "Feature",
      "properties": {
        "norad_id": 36744,
        "name": "COMS 1",
        "group": "weather",
        "lat": -4.125963161145693,
        "lon": 4.6911886894463874,
        "alt_km": 35788.15912511676,
        "timestamp": "2025-12-04T10:51:49.749312+00:00",
        "meta_object_name": "COMS 1",
        "meta_object_id": "2010-032A",
        "meta_epoch": "2025-12-03T21:44:51.671040",
        "meta_mean_motion": 1.00269853,
        "meta_eccentricity": 0.0001109,
        "meta_inclination": 4.3185,
        "meta_ra_of_asc_node": 78.0956,
        "meta_arg_of_pericenter": 185.4543,
        "meta_mean_anomaly": 263.8216,
        "meta_ephemeris_type": 0,
        "meta_classification_type": "U",
        "meta_norad_cat_id": 36744,
        "meta_element_set_no": 999,
        "meta_rev_at_epoch": 4913,
        "meta_bstar": 0,
        "meta_mean_motion_dot": -3.29e-06,
        "meta_mean_motion_ddot": 0,
        "tle_line1": "1 36744U 10032A   25337.90615360 -.00000329  00000+0  00000+0 0  9993",
        "tle_line2": "2 36744   4.3185  78.0956 0001109 185.4543 263.8216  1.00269853 49132"
      },
      "geometry": {
        "type": "Point",
        "coordinates": [
          4.6911886894463874,
          -4.125963161145693
        ]
      }
    },
    {
      "type": "Feature",
      "properties": {
        "norad_id": 37214,
        "name": "FENGYUN 3B",
        "group": "weather",
        "lat": -29.7164257211223,
        "lon": 23.557004373476854,
        "alt_km": 838.7191576887626,
        "timestamp": "2025-12-04T10:51:49.749324+00:00",
        "meta_object_name": "FENGYUN 3B",
        "meta_object_id": "2010-059A",
        "meta_epoch": "2025-12-04T04:37:08.063616",
        "meta_mean_motion": 14.14786117,
        "meta_eccentricity": 0.0022414,
        "meta_inclination": 98.992,
        "meta_ra_of_asc_node": 18.1097,
        "meta_arg_of_pericenter": 21.8555,
        "meta_mean_anomaly": 63.7807,
        "meta_ephemeris_type": 0,
        "meta_classification_type": "U",
        "meta_norad_cat_id": 37214,
        "meta_element_set_no": 999,
        "meta_rev_at_epoch": 77985,
        "meta_bstar": 0.00013184,
        "meta_mean_motion_dot": 2.09e-06,
        "meta_mean_motion_ddot": 0,
        "tle_line1": "1 37214U 10059A   25338.19245444  .00000209  00000+0  13184-3 0  9996",
        "tle_line2": "2 37214  98.9920  18.1097 0022414  21.8555  63.7807 14.14786117779858"
      },
      "geometry": {
        "type": "Point",
        "coordinates": [
          23.557004373476854,
          -29.7164257211223
        ]
      }
    },
    {
      "type": "Feature",
      "properties": {
        "norad_id": 37849,
        "name": "SUOMI NPP",
        "group": "weather",
        "lat": 29.859688976139598,
        "lon": -89.21852178982837,
        "alt_km": 825.786518605627,
        "timestamp": "2025-12-04T10:51:49.749335+00:00",
        "meta_object_name": "SUOMI NPP",
        "meta_object_id": "2011-061A",
        "meta_epoch": "2025-12-04T03:57:18.153216",
        "meta_mean_motion": 14.19510497,
        "meta_eccentricity": 0.0001925,
        "meta_inclination": 98.776,
        "meta_ra_of_asc_node": 275.5842,
        "meta_arg_of_pericenter": 135.6897,
        "meta_mean_anomaly": 224.4433,
        "meta_ephemeris_type": 0,
        "meta_classification_type": "U",
        "meta_norad_cat_id": 37849,
        "meta_element_set_no": 999,
        "meta_rev_at_epoch": 73077,
        "meta_bstar": 0.00012225,
        "meta_mean_motion_dot": 2.13e-06,
        "meta_mean_motion_ddot": 0,
        "tle_line1": "1 37849U 11061A   25338.16479344  .00000213  00000+0  12225-3 0  9999",
        "tle_line2": "2 37849  98.7760 275.5842 0001925 135.6897 224.4433 14.19510497730776"
      },
      "geometry": {
        "type": "Point",
        "coordinates": [
          -89.21852178982837,
          29.859688976139598
        ]
      }
    },
    {
      "type": "Feature",
      "properties": {
        "norad_id": 38552,
        "name": "METEOSAT-10 (MSG-3)",
        "group": "weather",
        "lat": 0.35255102806621086,
        "lon": -123.41618390735269,
        "alt_km": 35783.57701767154,
        "timestamp": "2025-12-04T10:51:49.749347+00:00",
        "meta_object_name": "METEOSAT-10 (MSG-3)",
        "meta_object_id": "2012-035B",
        "meta_epoch": "2025-12-03T01:46:14.361312",
        "meta_mean_motion": 1.00272334,
        "meta_eccentricity": 7.5e-05,
        "meta_inclination": 4.2044,
        "meta_ra_of_asc_node": 61.7366,
        "meta_arg_of_pericenter": 219.9554,
        "meta_mean_anomaly": 177.1386,
        "meta_ephemeris_type": 0,
        "meta_classification_type": "U",
        "meta_norad_cat_id": 38552,
        "meta_element_set_no": 999,
        "meta_rev_at_epoch": 4889,
        "meta_bstar": 0,
        "meta_mean_motion_dot": 1.1e-07,
        "meta_mean_motion_ddot": 0,
        "tle_line1": "1 38552U 12035B   25337.07377733  .00000011  00000+0  00000+0 0  9991",
        "tle_line2": "2 38552   4.2044  61.7366 0000750 219.9554 177.1386  1.00272334 48899"
      },
      "geometry": {
        "type": "Point",
        "coordinates": [
          -123.41618390735269,
          0.35255102806621086
        ]
      }
    },
    {
      "type": "Feature",
      "properties": {
        "norad_id": 38771,
        "name": "METOP-B",
        "group": "weather",
        "lat": -6.303151620406442,
        "lon": -152.41546836331457,
        "alt_km": 822.6492431563838,
        "timestamp": "2025-12-04T10:51:49.749358+00:00",
        "meta_object_name": "METOP-B",
        "meta_object_id": "2012-049A",
        "meta_epoch": "2025-12-03T23:51:13.778208",
        "meta_mean_motion": 14.21403487,
        "meta_eccentricity": 0.00025204,
        "meta_inclination": 98.6812,
        "meta_ra_of_asc_node": 28.1005,
        "meta_arg_of_pericenter": 163.9028,
        "meta_mean_anomaly": 196.223,
        "meta_ephemeris_type": 0,
        "meta_classification_type": "U",
        "meta_norad_cat_id": 38771,
        "meta_element_set_no": 999,
        "meta_rev_at_epoch": 68553,
        "meta_bstar": 0.00016338265,
        "meta_mean_motion_dot": 3.13e-06,
        "meta_mean_motion_ddot": 0,
        "tle_line1": "1 38771U 12049A   25337.99390947  .00000313  00000+0  16338-3 0  9992",
        "tle_line2": "2 38771  98.6812  28.1005 0002520 163.9028 196.2230 14.21403487685530"
      },
      "geometry": {
        "type": "Point",
        "coordinates": [
          -152.41546836331457,
          -6.303151620406442
        ]
      }
    },
    {
      "type": "Feature",
      "properties": {
        "norad_id": 39216,
        "name": "INSAT-3D",
        "group": "weather",
        "lat": -1.378111822254349,
        "lon": 6.009634703184269,
        "alt_km": 35790.21014795957,
        "timestamp": "2025-12-04T10:51:49.749371+00:00",
        "meta_object_name": "INSAT-3D",
        "meta_object_id": "2013-038B",
        "meta_epoch": "2025-12-03T19:09:59.504832",
        "meta_mean_motion": 1.00273601,
        "meta_eccentricity": 0.00017622,
        "meta_inclination": 1.4199,
        "meta_ra_of_asc_node": 85.093,
        "meta_arg_of_pericenter": 155.0281,
        "meta_mean_anomaly": 249.7797,
        "meta_ephemeris_type": 0,
        "meta_classification_type": "U",
        "meta_norad_cat_id": 39216,
        "meta_element_set_no": 999,
        "meta_rev_at_epoch": 4512,
        "meta_bstar": 0,
        "meta_mean_motion_dot": -3.22e-06,
        "meta_mean_motion_ddot": 0,
        "tle_line1": "1 39216U 13038B   25337.79860538 -.00000322  00000+0  00000+0 0  9998",
        "tle_line2": "2 39216   1.4199  85.0930 0001762 155.0281 249.7797  1.00273601 45127"
      },
      "geometry": {
        "type": "Point",
        "coordinates": [
          6.009634703184269,
          -1.378111822254349
        ]
      }
    },
    {
      "type": "Feature",
      "properties": {
        "norad_id": 39260,
        "name": "FENGYUN 3C",
        "group": "weather",
        "lat": -62.44774952754689,
        "lon": 119.93066570991405,
        "alt_km": 837.878920559926,
        "timestamp": "2025-12-04T10:51:49.749383+00:00",
        "meta_object_name": "FENGYUN 3C",
        "meta_object_id": "2013-052A",
        "meta_epoch": "2025-12-04T04:37:39.008640",
        "meta_mean_motion": 14.15692321,
        "meta_eccentricity": 0.0013861,
        "meta_inclination": 98.4754,
        "meta_ra_of_asc_node": 316.2899,
        "meta_arg_of_pericenter": 221.708,
        "meta_mean_anomaly": 138.3039,
        "meta_ephemeris_type": 0,
        "meta_classification_type": "U",
        "meta_norad_cat_id": 39260,
        "meta_element_set_no": 999,
        "meta_rev_at_epoch": 63097,
        "meta_bstar": 0.00014795,
        "meta_mean_motion_dot": 2.49e-06,
        "meta_mean_motion_ddot": 0,
        "tle_line1": "1 39260U 13052A   25338.19281260  .00000249  00000+0  14795-3 0  9994",
        "tle_line2": "2 39260  98.4754 316.2899 0013861 221.7080 138.3039 14.15692321630972"
      },
      "geometry": {
        "type": "Point",
        "coordinates": [
          119.93066570991405,
          -62.44774952754689
        ]
      }
    }
  ]
}